[
    {
        "Altitude(m)": 590976.1454856765,
        "Argument of Periapsis(deg)": -0.03013754771062987,
        "Eccentricity": 0.0,
        "Inclination(deg)": 97.0,
        "Latitude(deg)": -76.69552952164642,
        "Longitude(deg)": -164.22858049217191,
        "Mean Anomaly(deg)": -101.42930897441668,
        "RAAN(deg)": 150.0079294048247,
        "Satellite Name": "Starlink Shell 3 1908",
        "Satellite Number": 1908,
        "Semi-Major Axis(m)": 6938478.169268562,
        "Time(s)": 760
    },
    {
        "Altitude(m)": 591065.2616123538,
        "Argument of Periapsis(deg)": -0.030534094391032898,
        "Eccentricity": 0.0,
        "Inclination(deg)": 97.0,
        "Latitude(deg)": -77.21857311089255,
        "Longitude(deg)": -165.7469358482683,
        "Mean Anomaly(deg)": -100.80383277671166,
        "RAAN(deg)": 150.0080337390987,
        "Satellite Name": "Starlink Shell 3 1908",
        "Satellite Number": 1908,
        "Semi-Major Axis(m)": 6938478.169268562,
        "Time(s)": 770
    },
    {
        "Altitude(m)": 591149.5749311947,
        "Argument of Periapsis(deg)": -0.030930641071435925,
        "Eccentricity": 0.0,
        "Inclination(deg)": 97.0,
        "Latitude(deg)": -77.73269307157842,
        "Longitude(deg)": -167.38792161743874,
        "Mean Anomaly(deg)": -100.17835657900659,
        "RAAN(deg)": 150.0081380733727,
        "Satellite Name": "Starlink Shell 3 1908",
        "Satellite Number": 1908,
        "Semi-Major Axis(m)": 6938478.169268562,
        "Time(s)": 780
    },
    {
        "Altitude(m)": 591229.051290858,
        "Argument of Periapsis(deg)": -0.031327187751838945,
        "Eccentricity": 0.0,
        "Inclination(deg)": 97.0,
        "Latitude(deg)": -78.23672585030604,
        "Longitude(deg)": -169.16507389300673,
        "Mean Anomaly(deg)": -99.55288038130155,
        "RAAN(deg)": 150.00824240764672,
        "Satellite Name": "Starlink Shell 3 1908",
        "Satellite Number": 1908,
        "Semi-Major Axis(m)": 6938478.169268562,
        "Time(s)": 790
    },
    {
        "Altitude(m)": 591303.6584948746,
        "Argument of Periapsis(deg)": -0.031723734432241975,
        "Eccentricity": 0.0,
        "Inclination(deg)": 97.0,
        "Latitude(deg)": -78.72932449160265,
        "Longitude(deg)": -171.09339564153302,
        "Mean Anomaly(deg)": -98.92740418359648,
        "RAAN(deg)": 150.00834674192072,
        "Satellite Name": "Starlink Shell 3 1908",
        "Satellite Number": 1908,
        "Semi-Major Axis(m)": 6938478.169268562,
        "Time(s)": 800
    },
    {
        "Altitude(m)": 591373.3663152511,
        "Argument of Periapsis(deg)": -0.032120281112645,
        "Eccentricity": 0.0,
        "Inclination(deg)": 97.0,
        "Latitude(deg)": -79.20892934743489,
        "Longitude(deg)": -173.18937353829796,
        "Mean Anomaly(deg)": -98.30192798589141,
        "RAAN(deg)": 150.00845107619475,
        "Satellite Name": "Starlink Shell 3 1908",
        "Satellite Number": 1908,
        "Semi-Major Axis(m)": 6938478.169268562,
        "Time(s)": 810
    },
    {
        "Altitude(m)": 591438.1465052747,
        "Argument of Periapsis(deg)": -0.03251682779304802,
        "Eccentricity": 0.0,
        "Inclination(deg)": 97.0,
        "Latitude(deg)": -79.67373595011057,
        "Longitude(deg)": -175.4709020240213,
        "Mean Anomaly(deg)": -97.67645178818643,
        "RAAN(deg)": 150.00855541046874,
        "Satellite Name": "Starlink Shell 3 1908",
        "Satellite Number": 1908,
        "Semi-Major Axis(m)": 6938478.169268562,
        "Time(s)": 820
    },
    {
        "Altitude(m)": 591497.9728114308,
        "Argument of Periapsis(deg)": -0.032913374473451044,
        "Eccentricity": 0.0,
        "Inclination(deg)": 97.0,
        "Latitude(deg)": -80.12166118386025,
        "Longitude(deg)": -177.95706274314762,
        "Mean Anomaly(deg)": -97.05097559048136,
        "RAAN(deg)": 150.00865974474274,
        "Satellite Name": "Starlink Shell 3 1908",
        "Satellite Number": 1908,
        "Semi-Major Axis(m)": 6938478.169268562,
        "Time(s)": 830
    },
    {
        "Altitude(m)": 591552.8209844788,
        "Argument of Periapsis(deg)": -0.03330992115385407,
        "Eccentricity": 0.0,
        "Inclination(deg)": 97.0,
        "Latitude(deg)": -80.55030997546808,
        "Longitude(deg)": 179.33231565072262,
        "Mean Anomaly(deg)": -96.42549939277632,
        "RAAN(deg)": 150.00876407901674,
        "Satellite Name": "Starlink Shell 3 1908",
        "Satellite Number": 1908,
        "Semi-Major Axis(m)": 6938478.169268562,
        "Time(s)": 840
    },
    {
        "Altitude(m)": 591602.6687897155,
        "Argument of Periapsis(deg)": -0.0337064678342571,
        "Eccentricity": 0.0,
        "Inclination(deg)": 97.0,
        "Latitude(deg)": -80.95694632535324,
        "Longitude(deg)": 176.37740681074936,
        "Mean Anomaly(deg)": -95.80002319507125,
        "RAAN(deg)": 150.00886841329077,
        "Satellite Name": "Starlink Shell 3 1908",
        "Satellite Number": 1908,
        "Semi-Major Axis(m)": 6938478.169268562,
        "Time(s)": 850
    },
    {
        "Altitude(m)": 591647.4960163358,
        "Argument of Periapsis(deg)": -0.03410301451466012,
        "Eccentricity": 0.0,
        "Inclination(deg)": 97.0,
        "Latitude(deg)": -81.33847469374076,
        "Longitude(deg)": 173.1595475909695,
        "Mean Anomaly(deg)": -95.17454699736618,
        "RAAN(deg)": 150.0089727475648,
        "Satellite Name": "Starlink Shell 3 1908",
        "Satellite Number": 1908,
        "Semi-Major Axis(m)": 6938478.169268562,
        "Time(s)": 860
    },
    {
        "Altitude(m)": 591687.284485992,
        "Argument of Periapsis(deg)": -0.034499561195063144,
        "Eccentricity": 0.0,
        "Inclination(deg)": 97.0,
        "Latitude(deg)": -81.69144046259498,
        "Longitude(deg)": 169.66291421364866,
        "Mean Anomaly(deg)": -94.5490707996612,
        "RAAN(deg)": 150.0090770818388,
        "Satellite Name": "Starlink Shell 3 1908",
        "Satellite Number": 1908,
        "Semi-Major Axis(m)": 6938478.169268562,
        "Time(s)": 870
    },
    {
        "Altitude(m)": 591722.0180604134,
        "Argument of Periapsis(deg)": -0.03489610787546617,
        "Eccentricity": 0.0,
        "Inclination(deg)": 97.0,
        "Latitude(deg)": -82.01206101235003,
        "Longitude(deg)": 165.87676680848196,
        "Mean Anomaly(deg)": -93.92359460195614,
        "RAAN(deg)": 150.00918141611282,
        "Satellite Name": "Starlink Shell 3 1908",
        "Satellite Number": 1908,
        "Semi-Major Axis(m)": 6938478.169268562,
        "Time(s)": 880
    },
    {
        "Altitude(m)": 591751.6826482638,
        "Argument of Periapsis(deg)": -0.0352926545558692,
        "Eccentricity": 0.0,
        "Inclination(deg)": 97.0,
        "Latitude(deg)": -82.29630091505558,
        "Longitude(deg)": 161.7982229296094,
        "Mean Anomaly(deg)": -93.29811840425104,
        "RAAN(deg)": 150.0092857503868,
        "Satellite Name": "Starlink Shell 3 1908",
        "Satellite Number": 1908,
        "Semi-Major Axis(m)": 6938478.169268562,
        "Time(s)": 890
    },
    {
        "Altitude(m)": 591776.2662110417,
        "Argument of Periapsis(deg)": -0.035689201236272214,
        "Eccentricity": 0.0,
        "Inclination(deg)": 97.0,
        "Latitude(deg)": -82.54000417098922,
        "Longitude(deg)": 157.43533416324425,
        "Mean Anomaly(deg)": -92.67264220654604,
        "RAAN(deg)": 150.0093900846608,
        "Satellite Name": "Starlink Shell 3 1908",
        "Satellite Number": 1908,
        "Semi-Major Axis(m)": 6938478.169268562,
        "Time(s)": 900
    },
    {
        "Altitude(m)": 591795.7587681776,
        "Argument of Periapsis(deg)": -0.036085747916675244,
        "Eccentricity": 0.0,
        "Inclination(deg)": 97.0,
        "Latitude(deg)": -82.73909107831606,
        "Longitude(deg)": 152.80998922479355,
        "Mean Anomaly(deg)": -92.04716600884106,
        "RAAN(deg)": 150.00949441893482,
        "Satellite Name": "Starlink Shell 3 1908",
        "Satellite Number": 1908,
        "Semi-Major Axis(m)": 6938478.169268562,
        "Time(s)": 910
    },
    {
        "Altitude(m)": 591810.1524012428,
        "Argument of Periapsis(deg)": -0.03648229459707827,
        "Eccentricity": 0.0,
        "Inclination(deg)": 97.0,
        "Latitude(deg)": -82.88981537970531,
        "Longitude(deg)": 147.95991535457253,
        "Mean Anomaly(deg)": -91.42168981113595,
        "RAAN(deg)": 150.00959875320882,
        "Satellite Name": "Starlink Shell 3 1908",
        "Satellite Number": 1908,
        "Semi-Major Axis(m)": 6938478.169268562,
        "Time(s)": 920
    },
    {
        "Altitude(m)": 591819.4412572772,
        "Argument of Periapsis(deg)": -0.0368788412774813,
        "Eccentricity": 0.0,
        "Inclination(deg)": 97.0,
        "Latitude(deg)": -82.98905912095447,
        "Longitude(deg)": 142.93891988430636,
        "Mean Anomaly(deg)": -90.79621361343094,
        "RAAN(deg)": 150.00970308748285,
        "Satellite Name": "Starlink Shell 3 1908",
        "Satellite Number": 1908,
        "Semi-Major Axis(m)": 6938478.169268562,
        "Time(s)": 930
    },
    {
        "Altitude(m)": 591823.621551254,
        "Argument of Periapsis(deg)": -0.037275387957884314,
        "Eccentricity": 0.0,
        "Inclination(deg)": 97.0,
        "Latitude(deg)": -83.03462268392799,
        "Longitude(deg)": 137.81468633528365,
        "Mean Anomaly(deg)": -90.17073741572594,
        "RAAN(deg)": 150.00980742175685,
        "Satellite Name": "Starlink Shell 3 1908",
        "Satellite Number": 1908,
        "Semi-Major Axis(m)": 6938478.169268562,
        "Time(s)": 940
    }
]